[{"OBJECT_NAME":"STARLINK-35574","OBJECT_ID":"2025-236AB","EPOCH":"2026-03-09T12:25:21.750240","MEAN_MOTION":15.30208034,"ECCENTRICITY":0.00011674,"INCLINATION":53.1578,"RA_OF_ASC_NODE":104.9965,"ARG_OF_PERICENTER":78.1914,"MEAN_ANOMALY":281.9218,"EPHEMERIS_TYPE":0,"CLASSIFICATION_TYPE":"U","NORAD_CAT_ID":66111,"ELEMENT_SET_NO":999,"REV_AT_EPOCH":2285,"BSTAR":0.00081424601,"MEAN_MOTION_DOT":0.0002384,"MEAN_MOTION_DDOT":0},{"OBJECT_NAME":"KUIPER-00213","OBJECT_ID":"2026-030P","EPOCH":"2026-03-09T22:00:01.999584","MEAN_MOTION":15.32626943,"ECCENTRICITY":0.00152813,"INCLINATION":51.8816,"RA_OF_ASC_NODE":218.5142,"ARG_OF_PERICENTER":64.2462,"MEAN_ANOMALY":206.8369,"EPHEMERIS_TYPE":0,"CLASSIFICATION_TYPE":"U","NORAD_CAT_ID":67777,"ELEMENT_SET_NO":999,"REV_AT_EPOCH":502,"BSTAR":0.0016072376,"MEAN_MOTION_DOT":0.00051551,"MEAN_MOTION_DDOT":0}]
